{"type": "FeatureCollection", "features": [{"type": "Feature", "geometry": {"type": "Point", "coordinates": [-117.209486, 32.897242]}, "properties": {"Name": "Jaevon  Sanjna", "Address": "5010 WATERIDGE VISTA DR", "zipcode": 120100, "first_voter": false, "volunteer": "Kevin", "cluster": 0, "next_voter": null}}, {"type": "Feature", "geometry": {"type": "Point", "coordinates": [-117.210316, 32.893965]}, "properties": {"Name": "Evasio  Sevey", "Address": "4921 DIRECTORS PL", "zipcode": 120100, "first_voter": false, "volunteer": "Kevin", "cluster": 0, "next_voter": "4921 DIRECTORS PL"}}, {"type": "Feature", "geometry": {"type": "Point", "coordinates": [-117.209486, 32.897242]}, "properties": {"Name": "Mandal  Santibanez", "Address": "5010 WATERIDGE VISTA DR", "zipcode": 120100, "first_voter": false, "volunteer": "Kevin", "cluster": 0, "next_voter": "5010 WATERIDGE VISTA DR"}}, {"type": "Feature", "geometry": {"type": "Point", "coordinates": [-117.210309, 32.89575]}, "properties": {"Name": "Lepido  Tirey", "Address": "4930 DIRECTORS PL", "zipcode": 120100, "volunteer": "Kevin", "cluster": 0, "next_voter": "4921 DIRECTORS PL"}}, {"type": "Feature", "geometry": {"type": "Point", "coordinates": [-117.217289, 32.900716]}, "properties": {"Name": "Darianne  Mocha", "Address": "7475 LUSK BLVD", "zipcode": 120100, "first_voter": false, "volunteer": "Kevin", "cluster": 0, "next_voter": "5010 WATERIDGE VISTA DR"}}, {"type": "Feature", "geometry": {"type": "Point", "coordinates": [-117.216523, 32.898509]}, "properties": {"Name": "B\u00f3as  Goucher", "Address": "10515 VISTA SORRENTO PKWY", "zipcode": 120100, "first_voter": false, "volunteer": "Kevin", "cluster": 0, "next_voter": "7475 LUSK BLVD"}}, {"type": "Feature", "geometry": {"type": "Point", "coordinates": [-117.210316, 32.893965]}, "properties": {"Name": "R\u00e9nald  Murzynski", "Address": "4921 DIRECTORS PL", "zipcode": 120100, "first_voter": false, "volunteer": "Kevin", "cluster": 0, "next_voter": "10251 VISTA SORRENTO PKWY"}}, {"type": "Feature", "geometry": {"type": "Point", "coordinates": [-117.213663, 32.895533]}, "properties": {"Name": "Brodie-alexander  Dowsett", "Address": "10251 VISTA SORRENTO PKWY", "zipcode": 120100, "first_voter": false, "volunteer": "Kevin", "cluster": 0, "next_voter": "10251 VISTA SORRENTO PKWY"}}, {"type": "Feature", "geometry": {"type": "Point", "coordinates": [-117.216523, 32.898509]}, "properties": {"Name": "Shamika  Salters", "Address": "10515 VISTA SORRENTO PKWY", "zipcode": 120100, "first_voter": false, "volunteer": "Kevin", "cluster": 0, "next_voter": "10515 VISTA SORRENTO PKWY"}}, {"type": "Feature", "geometry": {"type": "Point", "coordinates": [-117.213663, 32.895533]}, "properties": {"Name": "Albulena  Allegre", "Address": "10251 VISTA SORRENTO PKWY", "zipcode": 120100, "first_voter": false, "volunteer": "Kevin", "cluster": 0, "next_voter": "10515 VISTA SORRENTO PKWY"}}]}